NORAD_CAT_ID,OBJECT_NAME,OBJECT_TYPE,EPOCH,MEAN_MOTION,ECCENTRICITY,INCLINATION,RA_OF_ASC_NODE,ARG_OF_PERICENTER,MEAN_ANOMALY,BSTAR,MEAN_MOTION_DOT,MEAN_MOTION_DDOT,TLE_LINE0,TLE_LINE1,TLE_LINE2,SEMIMAJOR_AXIS,PERIOD,APOGEE,PERIGEE,DECAYED
55956.0,STARLINK-5883,PAYLOAD,2023-05-31 18:41:34,15.69950028,0.00032,69.9978,330.1567,263.5819,96.5013,-1.887e-05,-2.483e-05,0.0,0 STARLINK-5883,1 55956U 23037AU  23151.77887520 -.00002483  00000-0 -18870-4 0  9998,2 55956  69.9978 330.1567 0003200 263.5819  96.5013 15.69950028 12309,6737.177,91.723,361.198,356.886,0.0
55956.0,STARLINK-5883,PAYLOAD,2023-05-31 21:45:06,15.69913996,0.0003247,69.9971,329.7966,273.6329,86.4495,-1.3681e-05,-1.857e-05,0.0,0 STARLINK-5883,1 55956U 23037AU  23151.90632896 -.00001857  00000-0 -13681-4 0  9996,2 55956  69.9971 329.7966 0003247 273.6329  86.4495 15.69913996 11986,6737.28,91.725,361.333,356.957,0.0
55956.0,STARLINK-5883,PAYLOAD,2023-06-01 05:23:51,15.69920812,0.000343,69.9963,328.9004,273.1938,86.8865,-2.294e-06,-4.89e-06,0.0,0 STARLINK-5883,1 55956U 23037AU  23152.22490580 -.00000489  00000-0 -22940-5 0  9993,2 55956  69.9963 328.9004 0003430 273.1938  86.8865 15.69920812 12033,6737.261,91.724,361.436,356.815,0.0
55956.0,STARLINK-5883,PAYLOAD,2023-06-02 13:30:39,15.69918389,0.0003694,69.9991,325.1407,268.5919,91.4853,1.8381e-06,8e-08,0.0,0 STARLINK-5883,1 55956U 23037AU  23153.56295838  .00000008  00000-0  18381-5 0  9999,2 55956  69.9991 325.1407 0003694 268.5919  91.4853 15.69918389 12247,6737.267,91.725,361.621,356.644,0.0
55956.0,STARLINK-5883,PAYLOAD,2023-06-02 18:05:54,15.69929522,0.0003915,69.9982,324.6028,266.702,93.3728,1.1843e-05,1.212e-05,0.0,0 STARLINK-5883,1 55956U 23037AU  23153.75409920  .00001212  00000-0  11843-4 0  9992,2 55956  69.9982 324.6028 0003915 266.7020  93.3728 15.69929522 12613,6737.236,91.724,361.738,356.463,0.0
55956.0,STARLINK-5883,PAYLOAD,2023-06-02 21:09:24,15.69932674,0.0003688,69.9956,324.24,271.8361,88.2412,9.4245e-06,9.21e-06,0.0,0 STARLINK-5883,1 55956U 23037AU  23153.88153183  .00000921  00000-0  94245-5 0  9997,2 55956  69.9956 324.2400 0003688 271.8361  88.2412 15.69932674 12295,6737.227,91.724,361.576,356.607,0.0
55956.0,STARLINK-5883,PAYLOAD,2023-06-03 04:48:11,15.69913964,0.0003308,69.997,323.3467,274.4801,85.6017,4.3239e-06,3.07e-06,0.0,0 STARLINK-5883,1 55956U 23037AU  23154.20012984  .00000307  00000-0  43239-5 0  9992,2 55956  69.9970 323.3467 0003308 274.4801  85.6017 15.69913964 12687,6737.28,91.725,361.374,356.916,0.0
55956.0,STARLINK-5883,PAYLOAD,2023-06-03 13:58:41,15.69921109,0.0004118,69.9995,322.2756,278.4743,81.5986,6.7967e-06,6.04e-06,0.0,0 STARLINK-5883,1 55956U 23037AU  23154.58242353  .00000604  00000-0  67967-5 0  9992,2 55956  69.9995 322.2756 0004118 278.4743  81.5986 15.69921109 12402,6737.26,91.724,361.899,356.35,0.0
55956.0,STARLINK-5883,PAYLOAD,2023-06-03 18:33:55,15.69930281,0.0003241,69.9997,321.74,257.5226,102.5608,2.3423e-05,2.605e-05,0.0,0 STARLINK-5883,1 55956U 23037AU  23154.77356310  .00002605  00000-0  23423-4 0  9993,2 55956  69.9997 321.7400 0003241 257.5226 102.5608 15.69930281 12770,6737.233,91.724,361.282,356.915,0.0
55956.0,STARLINK-5883,PAYLOAD,2023-06-03 21:37:26,15.69929831,0.0003549,69.9989,321.38,272.838,87.2409,1.597e-05,1.708e-05,0.0,0 STARLINK-5883,1 55956U 23037AU  23154.90099872  .00001708  00000-0  15970-4 0  9996,2 55956  69.9989 321.3800 0003549 272.8380  87.2409 15.69929831 12455,6737.235,91.724,361.491,356.709,0.0
55956.0,STARLINK-5883,PAYLOAD,2023-06-04 05:16:12,15.69921019,0.0002716,69.9993,320.4854,272.0141,88.0743,1.2743e-05,1.32e-05,0.0,0 STARLINK-5883,1 55956U 23037AU  23155.21958972  .00001320  00000-0  12743-4 0  9991,2 55956  69.9993 320.4854 0002716 272.0141  88.0743 15.69921019 12844,6737.26,91.724,360.955,357.295,0.0
55956.0,STARLINK-5883,PAYLOAD,2023-06-04 14:26:43,15.69920453,0.000383,69.9981,319.4057,275.7547,84.3212,-5.7166e-07,-2.82e-06,0.0,0 STARLINK-5883,1 55956U 23037AU  23155.60189366 -.00000282  00000-0 -57166-6 0  9995,2 55956  69.9981 319.4057 0003830 275.7547  84.3212 15.69920453 12562,6737.262,91.724,361.707,356.546,0.0
55956.0,STARLINK-5883,PAYLOAD,2023-06-04 19:01:57,15.6993597,0.0003317,69.9987,318.8721,265.0757,95.006,8.399e-06,7.98e-06,0.0,0 STARLINK-5883,1 55956U 23037AU  23155.79303187  .00000798  00000-0  83990-5 0  9997,2 55956  69.9987 318.8721 0003317 265.0757  95.0060 15.69935970 12935,6737.217,91.723,361.317,356.847,0.0
55956.0,STARLINK-5883,PAYLOAD,2023-06-04 20:33:43,15.69931843,0.0003229,69.9969,318.6882,272.7552,87.3274,7.3328e-06,6.69e-06,0.0,0 STARLINK-5883,1 55956U 23037AU  23155.85675129  .00000669  00000-0  73328-5 0  9993,2 55956  69.9969 318.6882 0003229 272.7552  87.3274 15.69931843 12601,6737.229,91.724,361.269,356.919,0.0
55956.0,STARLINK-5883,PAYLOAD,2023-06-05 04:12:29,15.6991339,0.0003663,69.9977,317.7933,275.056,85.0218,3.7824e-06,2.42e-06,0.0,0 STARLINK-5883,1 55956U 23037AU  23156.17534671  .00000242  00000-0  37824-5 0  9993,2 55956  69.9977 317.7933 0003663 275.0560  85.0218 15.69913390 12996,6737.282,91.725,361.615,356.679,0.0
55956.0,STARLINK-5883,PAYLOAD,2023-06-05 13:23:00,15.69920763,0.0003896,69.9984,316.7194,274.536,85.5391,-5.3328e-07,-2.77e-06,0.0,0 STARLINK-5883,1 55956U 23037AU  23156.55764410 -.00000277  00000-0 -53328-6 0  9999,2 55956  69.9984 316.7194 0003896 274.5360  85.5391 15.69920763 12711,6737.261,91.724,361.751,356.501,0.0
55956.0,STARLINK-5883,PAYLOAD,2023-06-05 19:30:00,15.6993229,0.0003987,69.9976,316.0028,277.6937,82.3806,-1.8672e-06,-4.38e-06,0.0,0 STARLINK-5883,1 55956U 23037AU  23156.81250392 -.00000438  00000-0 -18672-5 0  9998,2 55956  69.9976 316.0028 0003987 277.6937  82.3806 15.69932290 12754,6737.228,91.724,361.779,356.407,0.0
55956.0,STARLINK-5883,PAYLOAD,2023-06-06 15:22:47,15.69922286,0.0003782,69.9976,313.6733,276.0465,84.0299,1.3115e-05,1.364e-05,0.0,0 STARLINK-5883,1 55956U 23037AU  23157.64082584  .00001364  00000-0  13115-4 0  9999,2 55956  69.9976 313.6733 0003782 276.0465  84.0299 15.69922286 13224,6737.256,91.724,361.669,356.573,0.0
55956.0,STARLINK-5883,PAYLOAD,2023-06-06 19:58:02,15.69927572,0.0003737,69.9971,313.1347,275.7194,84.3576,8.0122e-06,7.51e-06,0.0,0 STARLINK-5883,1 55956U 23037AU  23157.83197386  .00000751  00000-0  80122-5 0  9999,2 55956  69.9971 313.1347 0003737 275.7194  84.3576 15.69927572 12919,6737.241,91.724,361.624,356.589,0.0
55956.0,STARLINK-5883,PAYLOAD,2023-06-07 14:19:04,15.69919921,0.0003683,69.9969,310.9862,271.3428,88.7345,1.5394e-06,-2.8e-07,0.0,0 STARLINK-5883,1 55956U 23037AU  23158.59658101 -.00000028  00000-0  15394-5 0  9997,2 55956  69.9969 310.9862 0003683 271.3428  88.7345 15.69919921 13377,6737.263,91.724,361.609,356.647,0.0
55956.0,STARLINK-5883,PAYLOAD,2023-06-07 20:26:05,15.69922991,0.0003476,69.9969,310.2691,283.9089,76.172,5.8474e-06,4.9e-06,0.0,0 STARLINK-5883,1 55956U 23037AU  23158.85144686  .00000490  00000-0  58474-5 0  9992,2 55956  69.9969 310.2691 0003476 283.9089  76.1720 15.69922991 13078,6737.254,91.724,361.461,356.777,0.0
55956.0,STARLINK-5883,PAYLOAD,2023-06-08 11:43:36,15.69923667,0.000377,69.9971,308.4776,272.9967,87.0797,-1.4224e-06,-3.84e-06,0.0,0 STARLINK-5883,1 55956U 23037AU  23159.48861323 -.00000384  00000-0 -14224-5 0  9995,2 55956  69.9971 308.4776 0003770 272.9967  87.0797 15.69923667 13171,6737.252,91.724,361.657,356.577,0.0
55956.0,STARLINK-5883,PAYLOAD,2023-06-08 13:15:21,15.69924081,0.0003806,69.9973,308.2981,273.8687,86.2073,-1.2898e-06,-3.68e-06,0.0,0 STARLINK-5883,1 55956U 23037AU  23159.55232960 -.00000368  00000-0 -12898-5 0  9999,2 55956  69.9973 308.2981 0003806 273.8687  86.2073 15.69924081 13188,6737.251,91.724,361.68,356.552,0.0
55956.0,STARLINK-5883,PAYLOAD,2023-06-08 19:22:21,15.69933439,0.0003962,69.9967,307.5818,271.3541,88.7201,8.7271e-06,8.37e-06,0.0,0 STARLINK-5883,1 55956U 23037AU  23159.80718852  .00000837  00000-0  87271-5 0  9992,2 55956  69.9967 307.5818 0003962 271.3541  88.7201 15.69933439 13566,6737.224,91.724,361.759,356.42,0.0
55956.0,STARLINK-5883,PAYLOAD,2023-06-09 10:39:53,15.69929884,0.0003735,69.9967,305.7906,274.0903,85.9866,-1.1664e-05,-1.616e-05,0.0,0 STARLINK-5883,1 55956U 23037AU  23160.44436469 -.00001616  00000-0 -11664-4 0  9995,2 55956  69.9967 305.7906 0003735 274.0903  85.9866 15.69929884 13323,6737.235,91.724,361.616,356.583,0.0
55956.0,STARLINK-5883,PAYLOAD,2023-06-09 12:11:38,15.69927751,0.000386,69.9967,305.6104,269.0957,90.9796,-1.3332e-05,-1.816e-05,0.0,0 STARLINK-5883,1 55956U 23037AU  23160.50808170 -.00001816  00000-0 -13332-4 0  9990,2 55956  69.9967 305.6104 0003860 269.0957  90.9796 15.69927751 13671,6737.241,91.724,361.706,356.505,0.0
55956.0,STARLINK-5883,PAYLOAD,2023-06-10 09:36:09,15.69927329,0.0003986,69.9973,303.1045,273.8885,86.1855,2.3021e-06,6.4e-07,0.0,0 STARLINK-5883,1 55956U 23037AU  23161.40011218  .00000064  00000-0  23021-5 0  9998,2 55956  69.9973 303.1045 0003986 273.8885  86.1855 15.69927329 13479,6737.242,91.724,361.792,356.421,0.0
55956.0,STARLINK-5883,PAYLOAD,2023-06-10 14:11:25,15.69926548,0.0003871,69.9972,302.5668,271.7526,88.3226,8.2958e-07,-1.13e-06,0.0,0 STARLINK-5883,1 55956U 23037AU  23161.59126276 -.00000113  00000-0  82958-6 0  9990,2 55956  69.9972 302.5668 0003871 271.7526  88.3226 15.69926548 13843,6737.244,91.724,361.717,356.501,0.0
55956.0,STARLINK-5883,PAYLOAD,2023-06-11 13:07:42,15.69922432,0.0003982,69.9973,299.8786,272.8088,87.2652,8.395e-06,7.96e-06,0.0,0 STARLINK-5883,1 55956U 23037AU  23162.54701409  .00000796  00000-0  83950-5 0  9991,2 55956  69.9973 299.8786 0003982 272.8088  87.2652 15.69922432 13659,6737.256,91.724,361.804,356.438,0.0
55956.0,STARLINK-5883,PAYLOAD,2023-06-11 19:14:42,15.69926257,0.000384,69.9974,299.1619,273.393,86.6826,1.3485e-05,1.409e-05,0.0,0 STARLINK-5883,1 55956U 23037AU  23162.80187791  .00001409  00000-0  13485-4 0  9999,2 55956  69.9974 299.1619 0003840 273.3930  86.6826 15.69926257 13692,6737.245,91.724,361.697,356.523,0.0
